IRIDIUM 136             
1 42962U 17061H   24222.21984773  .00000046  00000+0  93188-5 0  9994
2 42962  86.3986 308.1577 0002456  88.7978 271.3499 14.34216512357807
